K02P39X 23.4   0.15 K102D 351.58893  140.78486  135.34926    1.79821  0.5915769  0.25607033   2.4560086  4 MPO 62394    50   1   28 days 0.52 M-v 3Eh MPC        2004          2002 PX39          20020904
K02P39Y 21.5   0.15 K102D 190.71284   50.86623  321.99706    5.62922  0.4863892  0.33860685   2.0386322  4 MPO 41769   192   1  145 days 0.67 M-v 3Eh MPC        2004          2002 PY39          20021231
K02P43D 19.1   0.15 K102D 333.98087  210.68728  315.27288   26.16523  0.9560590  0.24803759   2.5087519  4 MPO103340   114   2 2002-2006 0.56 M-v 3Eh MPC        8003          2002 PD43          20060816
K02P43F 20.8   0.15 K102D 199.06037  191.50574  142.81796   13.86134  0.3661730  0.46758972   1.6439657  2 MPO 65348    40   2 2002-2004 0.49 M-v 3Eh MPC        8004          2002 PF43          20040524
K02P43G 18.3   0.15 K102D 115.85808    5.32403  347.05872    6.93576  0.4030383  0.30742469   2.1742537  1 MPO 97608   202   3 2002-2005 0.52 M-v 38h MPC        0004          2002 PG43          20051231
K02P75O 19.1   0.15 K102D  70.79097   13.92598  291.04880   14.20496  0.3808256  0.41891359   1.7689671  1 MPO155074   113   2 2002-2009 0.60 M-v 3Eh MPC        0004          2002 PO75          20090401
K02P80G 18.5   0.15 K102D 192.64578  211.53829  185.80419    4.40768  0.4376368  0.34525966   2.0123592  1 MPO155947   153   3 2002-2009 0.52 M-v 38h MPC        0004          2002 PG80          20090326
K02P80H 19.7   0.15 K102D 127.36395  331.21551  351.30012    6.42266  0.4580393  0.30832966   2.1699972  4 MPO 62395   107   1   93 days 0.49 M-v 38h MPC        2004          2002 PH80          20021113
K02PD0C 18.2   0.15 K102D   4.32606   80.67011  312.22386   19.50623  0.4826433  0.27485329   2.3428011  1 MPO166135    65   3 2002-2009 0.53 M-v 38h MPC        0004          2002 PC130         20091117
K02PD0D 19.9   0.15 K102D 302.53270  104.99226  269.28066    8.78259  0.3438450  0.38194348   1.8813517  4 MPO 38362    62   1   86 days 0.39 M-v 38h MPC        2004          2002 PD130         20021108
K02PD0E 18.3   0.15 K102D 286.97203   33.45934  357.55060   15.62902  0.6200027  0.24092937   2.5578568  0 MPO116217   130   2 2002-2007 0.58 M-v 3Eh MPC        8003          2002 PE130         20070219
K02PE0T 20.5   0.15 K102D 272.60522  117.58398  218.63866    6.05029  0.5018115  0.23216099   2.6218623  4 MPO 62396    69   1   89 days 0.49 M-v 38h MPC        2005          2002 PT140         20021006
K02Q06Y 19.5   0.15 K102D 213.71799  355.29246  164.30079   12.75261  0.6991421  1.33453273   0.8170524  4 MPO147224   149   4 2002-2008 0.58 M-v 3Eh MPC        0002          2002 QY6           20080927
K02Q06Z 19.7   0.15 K102D 258.93036  359.72533  323.45293   22.22227  0.4424918  0.35746978   1.9662700  5 MPO 38366   415   1   73 days 0.54 M-v 3Eh MPC        2004          2002 QZ6           20021029
K02Q07C 19.9   0.15 K102D 135.68664  184.41879  336.07183   26.81326  0.1957703  0.77993462   1.1688638  2 MPO126630    80   2 2002-2007 0.56 M-v 3Eh MPC        8003          2002 QC7           20070930
K02Q07D 18.0   0.15 K102D 344.94871  197.10367  198.02627   11.63908  0.6476859  0.26169773   2.4206727  1 MPO116218    57   3 2002-2007 0.46 M-v 3Eh MPC        0003          2002 QD7           20070127
K02Q07E 19.6   0.15 K102D  64.09037   88.32243  244.54270   12.11056  0.1812648  0.55313268   1.4697716  1 MPO158433    55   3 2002-2009 0.47 M-v 38h MPC        0004          2002 QE7           20090511
K02Q10H 20.3   0.15 K102D   7.93762   23.68336    0.47686    4.79353  0.5604228  0.27155714   2.3617209  4 MPO 66279   179   1  114 days 0.57 M-v 3Eh MPC        A004          2002 QH10          20021212
K02Q24G 17.8   0.15 K102D  97.76933  109.07354  133.02516    5.68317  0.4899544  0.28524350   2.2855578  2 MPO162351    87   3 2002-2009 0.51 M-v 38h MPC        0004          2002 QG24          20090925
K02Q40Q 21.1   0.15 K102D 147.45898  356.48045  104.14308    1.72283  0.5644401  0.73591050   1.2150273  7 MPO 66279    56   1   20 days 0.73 M-v 3Eh MPC        A003          2002 QQ40          20020909
K02Q46G 19.9   0.15 K102D   3.66603  268.26073  345.95614    8.30384  0.6278333  0.25949322   2.4343632  5 MPO 87543    49   1  228 days 0.54 M-v 3Eh MPC        2003          2002 QG46          20020930
K02Q47E 22.2   0.15 K102D 333.30931   34.69885   15.27100    0.73473  0.3655609  0.39853594   1.8287642  2 MPO153357    43   2 2002-2007 0.42 M-v 38h MPC        0004          2002 QE47          20071230
K02Q47W 20.8   0.15 K102D 274.42624  140.76344  116.42845    4.21534  0.5169537  0.35577338   1.9725155  2 MPO 89310    49   2 2002-2005 0.62 M-v 3Eh MPC        8003          2002 QW47          20051105
K02R00B 20.3   0.15 K102D 112.80023  194.69575  125.05851    7.64083  0.4338349  0.30291533   2.1957786  5 MPO 62399    21   1   71 days 0.59 M-v 38h MPC        2004          2002 RB            20021029
K02R00T 20.9   0.15 K102D 340.64444  131.41877  338.07318   38.77886  0.7262638  0.53546145   1.5019331  7 MPO 66281    68   1   31 days 0.68 M-v 3Eh MPC        2003          2002 RT            20020928
K02R25Q 20.4   0.15 K102D 207.74189  225.30984   10.78271    4.56842  0.3061904  0.84113521   1.1114557  2 MPO166137   138   4 2002-2009 0.53 M-v 3Eh MPC        0003          2002 RQ25          20091111
K02R25R 20.9   0.15 K102D 151.02997  156.07826  349.94350   13.54046  0.3100318  1.03645612   0.9670200  4 MPO 53730   127   2 2002-2003 0.66 M-v 3Eh MPC        0002          2002 RR25          20031013
K02R25S 19.5   0.15 K102D 102.09567   27.61846  340.42469   10.20879  0.5119574  0.17164917   3.2065763  5 MPO 57887    40   1   47 days 0.62 M-v 38h MPC        2007          2002 RS25          20021006
K02R25T 18.7   0.15 K102D 236.92615  258.88609  165.36909   28.88518  0.4376087  0.36674736   1.9329682  2 MPO121320    55   3 2002-2007 0.52 M-v 3Eh MPC        0004          2002 RT25          20070610
K02R25U 17.4   0.15 K102D 131.55324  306.29327    5.18873   28.89037  0.4829336  0.30679365   2.1772341  1 MPO139170   187   3 2002-2008 0.47 M-v 38h MPC        0004          2002 RU25          20080503
K02R25W 18.9   0.15 K102D 185.32913   71.66547   92.03263    1.32522  0.2864859  1.31451262   0.8253273  3 MPO147227    90   3 2002-2008 0.42 M-v 3Eh MPC        8002          2002 RW25          20081002
K02R27D 17.9   0.15 K102D 226.18657   73.15427  355.98876   25.65584  0.5330811  0.22411715   2.6842275  3 MPO 48256    97   1  212 days 0.43 M-v 38h MPC        2004          2002 RD27          20030405
K02R28O 25.4   0.15 K102D   1.05421  208.92594  163.10171    6.18666  0.3310341  0.53547674   1.5019045  6 MPO 41777    22   1   90 days 0.35 M-v 3Eh MPC        2004          2002 RO28          20021204
K02R28P 21.2   0.15 K102D 137.70316  250.46921  163.52312    8.00061  0.3906048  0.46010134   1.6617552  5 MPO 41777    95   1  110 days 0.60 M-v 3Eh MPC        2004          2002 RP28          20021224
K02R28Q 18.5   0.15 K102D   7.54777  209.82706  159.32818    9.30818  0.5631949  0.13646474   3.7364205  5 MPO 62400    42   1   42 days 0.52 M-v 38h MPC        2007          2002 RQ28          20021002
K02R38N 16.9   0.15 K102D 352.58808  118.13496  296.59876    4.15396  0.6738260  0.13245702   3.8114134  1 MPO159399    97   2 2002-2009 0.51 M-v 38h MPC        0004          2002 RN38          20090726
K02R52H 16.8   0.15 K102D 195.55918   96.60005    2.36612   16.18696  0.4920476  0.35404015   1.9789480  1 MPO102124   686   3 2002-2006 0.52 M-v 3Eh MPC        0004          2002 RH52          20060504
K02RA9N 15.3   0.15 K102D   0.16406  212.29792  170.45562   58.23166  0.9956993  0.00006317 624.3676483    MPO104218    38   1   80 days 0.52 M-v 38h MPC        2011          2002 RN109         20021104
K02RB2T 18.0   0.15 K102D 285.51335  334.08654  310.75058    4.09445  0.5045496  0.22837291   2.6507757  5 MPO 38398    60   1   53 days 0.53 M-v 38h MPC        2005          2002 RT112         20021029
K02RB2V 17.9   0.15 K102D  84.45032  199.42468  196.10988   16.50768  0.4891273  0.29783272   2.2206892  1 MPO140107    59   4 2002-2008 0.44 M-v 38h MPC        0004          2002 RV112         20080601
K02RB7C 24.9   0.15 K102D 330.69395  222.00272  169.88719    2.49822  0.6321064  0.25781168   2.4449369  5 MPO 57891    48   1   15 days 0.81 M-v 3Eh MPC        2003          2002 RC117         20020910
K02RB8C 16.7   0.15 K102D 154.56503  222.15644  208.99122   28.04679  0.5665079  0.19452036   2.9500272  0 MPO140676   416   2 2002-2008 0.38 M-v 38h MPC        0004          2002 RC118         20080208
K02RC5Z 19.8   0.15 K102D 201.56975   56.46461  171.93336   28.96738  0.5341873  0.58623927   1.4139024  7 MPO 38401    35   1   20 days 0.55 M-v 3Eh MPC        2003          2002 RZ125         20020930
K02RC6A 22.8   0.15 K102D 231.11679   95.13154  213.52234    3.18758  0.6223476  0.21509594   2.7587642  6 MPO 74211    27   1   17 days 0.62 M-v 3Eh MPC        2004          2002 RA126         20020928
K02RC6B 18.7   0.15 K102D 155.38756  224.72354    7.07596   15.07646  0.7221310  0.57663305   1.4295621  2 MPO164191   210   5 2002-2009 0.43 M-v 3Eh MPC        1003          2002 RB126         20091015
K02RC9S 23.0   0.15 K102D 119.43080  246.99156  338.99605    8.44542  0.3290744  0.94105994   1.0313147  7 MPO116220    32   1   35 days 0.65 M-v 3Eh MPC        2003          2002 RS129         20020930
K02RC9T 19.5   0.15 K102D  22.39203   55.65294  178.71052   19.63648  0.7536730  0.39728672   1.8325958  3 MPO123868   154   2 2002-2007 0.54 M-v 3Eh MPC        0003          2002 RT129         20070922
K02RD7O 21.1   0.15 K102D 112.03962  198.09425  180.00774    7.01567  0.4512729  0.31150235   2.1552376  4 MPO 41788    50   1   86 days 0.43 M-v 38h MPC        2004          2002 RO137         20021106
K02RD7P 23.0   0.15 K102D 258.54577  259.08536  176.33596   14.19963  0.0820338  0.78717153   1.1616888  3 MPO123869    43   2 2002-2007 0.59 M-v 3Eh MPC        0004          2002 RP137         20070902
